CCSDS_OMM_VERS = 2.0
CREATION_DATE  = 
ORIGINATOR     = 

OBJECT_NAME    = RSP-03
OBJECT_ID      = 1998-067XL
CENTER_NAME    = EARTH
REF_FRAME      = TEME
TIME_SYSTEM    = UTC
MEAN_ELEMENT_THEORY = SGP/SGP4

EPOCH          = 2026-02-02T21:49:59.806272
MEAN_MOTION    = 15.94343295
ECCENTRICITY   = .0005234
INCLINATION    = 51.6179
RA_OF_ASC_NODE = 226.8088
ARG_OF_PERICENTER = 241.8921
MEAN_ANOMALY   = 118.1558

EPHEMERIS_TYPE = 0
CLASSIFICATION_TYPE = U
NORAD_CAT_ID   = 65732
ELEMENT_SET_NO = 999
REV_AT_EPOCH   = 2140
BSTAR          = .13264E-2
MEAN_MOTION_DOT = .508006E-2
MEAN_MOTION_DDOT = .11474E-3

CCSDS_OMM_VERS = 2.0
CREATION_DATE  = 
ORIGINATOR     = 

OBJECT_NAME    = YOTSUBA-KULOVER
OBJECT_ID      = 1998-067XN
CENTER_NAME    = EARTH
REF_FRAME      = TEME
TIME_SYSTEM    = UTC
MEAN_ELEMENT_THEORY = SGP/SGP4

EPOCH          = 2026-02-02T12:56:13.022304
MEAN_MOTION    = 15.69250811
ECCENTRICITY   = .00042
INCLINATION    = 51.6238
RA_OF_ASC_NODE = 237.9326
ARG_OF_PERICENTER = 208.3499
MEAN_ANOMALY   = 151.7270

EPHEMERIS_TYPE = 0
CLASSIFICATION_TYPE = U
NORAD_CAT_ID   = 65941
ELEMENT_SET_NO = 999
REV_AT_EPOCH   = 1796
BSTAR          = .9092182E-3
MEAN_MOTION_DOT = .109133E-2
MEAN_MOTION_DDOT = 0

CCSDS_OMM_VERS = 2.0
CREATION_DATE  = 
ORIGINATOR     = 

OBJECT_NAME    = BOTAN
OBJECT_ID      = 1998-067XP
CENTER_NAME    = EARTH
REF_FRAME      = TEME
TIME_SYSTEM    = UTC
MEAN_ELEMENT_THEORY = SGP/SGP4

EPOCH          = 2026-02-02T12:36:34.648128
MEAN_MOTION    = 15.80512064
ECCENTRICITY   = .00055274
INCLINATION    = 51.6178
RA_OF_ASC_NODE = 234.8063
ARG_OF_PERICENTER = 226.6486
MEAN_ANOMALY   = 133.4055

EPHEMERIS_TYPE = 0
CLASSIFICATION_TYPE = U
NORAD_CAT_ID   = 65942
ELEMENT_SET_NO = 999
REV_AT_EPOCH   = 1800
BSTAR          = .13748996E-2
MEAN_MOTION_DOT = .275567E-2
MEAN_MOTION_DDOT = 0

CCSDS_OMM_VERS = 2.0
CREATION_DATE  = 
ORIGINATOR     = 

OBJECT_NAME    = E-KAGAKU-1
OBJECT_ID      = 1998-067XQ
CENTER_NAME    = EARTH
REF_FRAME      = TEME
TIME_SYSTEM    = UTC
MEAN_ELEMENT_THEORY = SGP/SGP4

EPOCH          = 2026-02-02T14:28:33.635712
MEAN_MOTION    = 15.69186558
ECCENTRICITY   = .00032096
INCLINATION    = 51.6258
RA_OF_ASC_NODE = 237.6202
ARG_OF_PERICENTER = 222.3729
MEAN_ANOMALY   = 137.7021

EPHEMERIS_TYPE = 0
CLASSIFICATION_TYPE = U
NORAD_CAT_ID   = 65943
ELEMENT_SET_NO = 999
REV_AT_EPOCH   = 1797
BSTAR          = .89834931E-3
MEAN_MOTION_DOT = .107496E-2
MEAN_MOTION_DDOT = 0

CCSDS_OMM_VERS = 2.0
CREATION_DATE  = 
ORIGINATOR     = 

OBJECT_NAME    = HRC MONOBLOCK CAMERA
OBJECT_ID      = 1998-067XR
CENTER_NAME    = EARTH
REF_FRAME      = TEME
TIME_SYSTEM    = UTC
MEAN_ELEMENT_THEORY = SGP/SGP4

EPOCH          = 2026-02-02T23:42:05.757696
MEAN_MOTION    = 15.58616618
ECCENTRICITY   = .0000378
INCLINATION    = 51.6280
RA_OF_ASC_NODE = 240.1857
ARG_OF_PERICENTER = 15.4712
MEAN_ANOMALY   = 344.6292

EPHEMERIS_TYPE = 0
CLASSIFICATION_TYPE = U
NORAD_CAT_ID   = 66052
ELEMENT_SET_NO = 999
REV_AT_EPOCH   = 1697
BSTAR          = .57903E-3
MEAN_MOTION_DOT = .45031E-3
MEAN_MOTION_DDOT = 0

CCSDS_OMM_VERS = 2.0
CREATION_DATE  = 
ORIGINATOR     = 

OBJECT_NAME    = HTV-X1
OBJECT_ID      = 2025-241A
CENTER_NAME    = EARTH
REF_FRAME      = TEME
TIME_SYSTEM    = UTC
MEAN_ELEMENT_THEORY = SGP/SGP4

EPOCH          = 2026-02-02T12:47:52.857888
MEAN_MOTION    = 15.48343227
ECCENTRICITY   = .00111084
INCLINATION    = 51.6312
RA_OF_ASC_NODE = 246.1482
ARG_OF_PERICENTER = 57.0277
MEAN_ANOMALY   = 303.1777

EPHEMERIS_TYPE = 0
CLASSIFICATION_TYPE = U
NORAD_CAT_ID   = 66174
ELEMENT_SET_NO = 999
REV_AT_EPOCH   = 51
BSTAR          = .18248934E-3
MEAN_MOTION_DOT = .9405E-4
MEAN_MOTION_DDOT = 0

CCSDS_OMM_VERS = 2.0
CREATION_DATE  = 
ORIGINATOR     = 

OBJECT_NAME    = SZ-21 MODULE
OBJECT_ID      = 2025-246C
CENTER_NAME    = EARTH
REF_FRAME      = TEME
TIME_SYSTEM    = UTC
MEAN_ELEMENT_THEORY = SGP/SGP4

EPOCH          = 2026-02-03T02:07:52.735584
MEAN_MOTION    = 15.65925225
ECCENTRICITY   = .0003288
INCLINATION    = 41.4757
RA_OF_ASC_NODE = 55.9274
ARG_OF_PERICENTER = 269.9133
MEAN_ANOMALY   = 90.1331

EPHEMERIS_TYPE = 0
CLASSIFICATION_TYPE = U
NORAD_CAT_ID   = 66515
ELEMENT_SET_NO = 999
REV_AT_EPOCH   = 1264
BSTAR          = .30952E-3
MEAN_MOTION_DOT = .3226E-3
MEAN_MOTION_DDOT = 0

CCSDS_OMM_VERS = 2.0
CREATION_DATE  = 
ORIGINATOR     = 

OBJECT_NAME    = SHENZHOU-22
OBJECT_ID      = 2025-272A
CENTER_NAME    = EARTH
REF_FRAME      = TEME
TIME_SYSTEM    = UTC
MEAN_ELEMENT_THEORY = SGP/SGP4

EPOCH          = 2026-02-02T12:03:08.571456
MEAN_MOTION    = 15.59105413
ECCENTRICITY   = .00063887
INCLINATION    = 41.4673
RA_OF_ASC_NODE = 62.0121
ARG_OF_PERICENTER = 343.4134
MEAN_ANOMALY   = 16.6494

EPHEMERIS_TYPE = 0
CLASSIFICATION_TYPE = U
NORAD_CAT_ID   = 66645
ELEMENT_SET_NO = 999
REV_AT_EPOCH   = 26764
BSTAR          = .18189296E-3
MEAN_MOTION_DOT = .14324E-3
MEAN_MOTION_DDOT = 0

CCSDS_OMM_VERS = 2.0
CREATION_DATE  = 
ORIGINATOR     = 

OBJECT_NAME    = SOYUZ-MS 28
OBJECT_ID      = 2025-275A
CENTER_NAME    = EARTH
REF_FRAME      = TEME
TIME_SYSTEM    = UTC
MEAN_ELEMENT_THEORY = SGP/SGP4

EPOCH          = 2026-02-02T20:32:35.172960
MEAN_MOTION    = 15.48349910
ECCENTRICITY   = .0011034
INCLINATION    = 51.6309
RA_OF_ASC_NODE = 244.5534
ARG_OF_PERICENTER = 58.3744
MEAN_ANOMALY   = 301.8319

EPHEMERIS_TYPE = 0
CLASSIFICATION_TYPE = U
NORAD_CAT_ID   = 66664
ELEMENT_SET_NO = 999
REV_AT_EPOCH   = 55093
BSTAR          = .1882E-3
MEAN_MOTION_DOT = .9716E-4
MEAN_MOTION_DDOT = 0

CCSDS_OMM_VERS = 2.0
CREATION_DATE  = 
ORIGINATOR     = 

OBJECT_NAME    = DUPLEX
OBJECT_ID      = 1998-067XS
CENTER_NAME    = EARTH
REF_FRAME      = TEME
TIME_SYSTEM    = UTC
MEAN_ELEMENT_THEORY = SGP/SGP4

EPOCH          = 2026-02-02T22:42:51.776640
MEAN_MOTION    = 15.53750914
ECCENTRICITY   = .0001577
INCLINATION    = 51.6285
RA_OF_ASC_NODE = 242.9111
ARG_OF_PERICENTER = 81.9261
MEAN_ANOMALY   = 278.1908

EPHEMERIS_TYPE = 0
CLASSIFICATION_TYPE = U
NORAD_CAT_ID   = 66906
ELEMENT_SET_NO = 999
REV_AT_EPOCH   = 972
BSTAR          = .42486E-3
MEAN_MOTION_DOT = .27359E-3
MEAN_MOTION_DDOT = 0

CCSDS_OMM_VERS = 2.0
CREATION_DATE  = 
ORIGINATOR     = 

OBJECT_NAME    = 1998-067XT
OBJECT_ID      = 1998-067XT
CENTER_NAME    = EARTH
REF_FRAME      = TEME
TIME_SYSTEM    = UTC
MEAN_ELEMENT_THEORY = SGP/SGP4

EPOCH          = 2026-02-01T23:59:16.296288
MEAN_MOTION    = 15.60110214
ECCENTRICITY   = .00027037
INCLINATION    = 51.6262
RA_OF_ASC_NODE = 246.3359
ARG_OF_PERICENTER = 169.0927
MEAN_ANOMALY   = 191.0125

EPHEMERIS_TYPE = 0
CLASSIFICATION_TYPE = U
NORAD_CAT_ID   = 66907
ELEMENT_SET_NO = 999
REV_AT_EPOCH   = 959
BSTAR          = .95066741E-3
MEAN_MOTION_DOT = .78957E-3
MEAN_MOTION_DDOT = 0

CCSDS_OMM_VERS = 2.0
CREATION_DATE  = 
ORIGINATOR     = 

OBJECT_NAME    = 1998-067XU
OBJECT_ID      = 1998-067XU
CENTER_NAME    = EARTH
REF_FRAME      = TEME
TIME_SYSTEM    = UTC
MEAN_ELEMENT_THEORY = SGP/SGP4

EPOCH          = 2026-02-01T23:58:39.340416
MEAN_MOTION    = 15.60143030
ECCENTRICITY   = .00025881
INCLINATION    = 51.6258
RA_OF_ASC_NODE = 246.3309
ARG_OF_PERICENTER = 170.0910
MEAN_ANOMALY   = 190.0135

EPHEMERIS_TYPE = 0
CLASSIFICATION_TYPE = U
NORAD_CAT_ID   = 66908
ELEMENT_SET_NO = 999
REV_AT_EPOCH   = 959
BSTAR          = .99129319E-3
MEAN_MOTION_DOT = .82493E-3
MEAN_MOTION_DDOT = 0

